TEVEL2-6                
1 63215U 25052F   26068.64958975  .00021046  00000+0  70909-3 0  9996
2 63215  97.4016 325.0381 0004769  95.6604 264.5181 15.30760889 54861
STARLINK-34502          
1 64680U 25139S   26068.53702316  .00023331  00000+0  79722-3 0  9994
2 64680  53.1590 127.5402 0001367  86.7466 273.3692 15.30205846 40262
